{"type": "FeatureCollection", "features": [{"type": "Feature", "properties": {"name": "pycomlink_example_region", "source": "derived_from_cml_metadata_example"}, "geometry": {"type": "Polygon", "coordinates": [[[1.1519901203309522, 57.892357124273076], [1.152217494493914, 57.896985431686005], [1.1527946312683366, 57.90284519969367], [1.153946586969854, 57.9106110542286], [1.1550953023760715, 57.916386036555494], [1.157002897949753, 57.924001584974555], [1.1587121292304376, 57.92963616538387], [1.1613569934881114, 57.937028065792724], [1.163610279811694, 57.942467980195026], [1.1669669412647286, 57.949565044551896], [1.169742582252115, 57.95475790359767], [1.1737787144157799, 57.961491783293155], [1.176999918697815, 57.96631265618437], [1.1770769934881113, 57.96652806579273], [1.179330279811694, 57.97196798019503], [1.1826869412647285, 57.9790650445519], [1.185462582252115, 57.98425790359767], [1.1894987144157798, 57.99099178329316], [1.1927699791269633, 57.99588757691112], [1.197446711842148, 58.002193421002644], [1.2011820962096804, 58.006745000023905], [1.2048221322346175, 58.01076116088297], [1.2029553023760715, 58.0182139634445], [1.201806586969854, 58.02398894577139], [1.2006546312683366, 58.031754800306324], [1.200077494493914, 58.03761456831399], [1.1996922726276897, 58.04545593954035], [1.1996922726276897, 58.05134406045965], [1.200077494493914, 58.05918543168601], [1.2006546312683366, 58.06504519969368], [1.201806586969854, 58.07281105422861], [1.2029553023760715, 58.0785860365555], [1.204862897949753, 58.08620158497456], [1.2065721292304377, 58.091836165383874], [1.208081710934561, 58.09605516361168], [1.2070769412647295, 58.09793495544809], [1.2037202798116948, 58.10503201980496], [1.2014669934881117, 58.11047193420727], [1.198822129230438, 58.117863834616124], [1.1971128979497534, 58.12349841502544], [1.1952053023760718, 58.1311139634445], [1.1940565869698543, 58.13688894577139], [1.192904631268337, 58.14465480030632], [1.1923274944939144, 58.15051456831399], [1.19194227262769, 58.15835593954035], [1.19194227262769, 58.164244060459644], [1.192030903552247, 58.166048184375036], [1.1896099791269639, 58.169312423088876], [1.1863387144157795, 58.17420821670684], [1.182302582252115, 58.180942096402326], [1.1795269412647298, 58.18613495544809], [1.176170279811695, 58.19323201980496], [1.173916993488112, 58.19867193420727], [1.1712721292304382, 58.206063834616124], [1.1695628979497537, 58.21169841502544], [1.167655302376072, 58.2193139634445], [1.1665065869698545, 58.22508894577139], [1.1653546312683372, 58.23285480030632], [1.1647774944939147, 58.23871456831399], [1.1643922726276903, 58.24655593954035], [1.1643922726276903, 58.252444060459645], [1.1647774944939147, 58.26028543168601], [1.1653546312683372, 58.266145199693675], [1.1665065869698545, 58.273911054228606], [1.167655302376072, 58.279686036555496], [1.1695628979497537, 58.28730158497456], [1.1712721292304382, 58.29293616538387], [1.173916993488112, 58.300328065792726], [1.1761702798116946, 58.30576798019503], [1.1795269412647291, 58.3128650445519], [1.1823025822521156, 58.31805790359767], [1.1863387144157804, 58.32479178329316], [1.1896099791269639, 58.32968757691112], [1.1942867118421485, 58.33599342100264], [1.198022096209681, 58.3405450000239], [1.2032943899837762, 58.346362079785735], [1.2074579202142435, 58.350525610016206], [1.2132749999760757, 58.355797903790304], [1.2178265789973726, 58.35953328815786], [1.224132423088896, 58.364210020873045], [1.2290282167068525, 58.367481285584226], [1.2357620964023408, 58.37151741774789], [1.2409549554480694, 58.374293058735255], [1.248052019804942, 58.377649720188295], [1.253491934207298, 58.379903006511896], [1.2608838346161484, 58.382547870769564], [1.266518415025433, 58.38425710205024], [1.2741339634444997, 58.386164697623926], [1.2799089457713966, 58.38731341303014], [1.287674800306322, 58.38846536873166], [1.2935345683139883, 58.38904250550608], [1.293541722489862, 58.3890428569682], [1.2940482167068512, 58.38938128558423], [1.3007820964023395, 58.39341741774789], [1.3059749554480682, 58.39619305873526], [1.3130720198049408, 58.3995497201883], [1.3185119342072968, 58.4018030065119], [1.3259038346161471, 58.404447870769566], [1.3315384150254317, 58.406157102050244], [1.3391539634444984, 58.40806469762393], [1.3449289457713953, 58.409213413030145], [1.3526948003063208, 58.41036536873166], [1.358554568313987, 58.410942505506085], [1.3663959395403518, 58.41132772737231], [1.372284060459647, 58.41132772737231], [1.3801254316860117, 58.410942505506085], [1.3859851996936778, 58.41036536873166], [1.3937510542286033, 58.409213413030145], [1.3995260365555002, 58.40806469762393], [1.407141584974567, 58.406157102050244], [1.4127761653838515, 58.404447870769566], [1.4201680657927018, 58.4018030065119], [1.4256079801950585, 58.3995497201883], [1.432705044551931, 58.39619305873526], [1.4372075785354117, 58.393786404181085], [1.4388380657927062, 58.3932030065119], [1.4436903854827572, 58.39119310988731], [1.4438928979497527, 58.39200158497456], [1.4456021292304373, 58.39763616538387], [1.448246993488111, 58.40502806579273], [1.4505002798116937, 58.41046798019503], [1.4538569412647282, 58.4175650445519], [1.4566325822521147, 58.42275790359767], [1.4606687144157795, 58.42949178329316], [1.463939979126963, 58.43438757691112], [1.4686167118421476, 58.44069342100264], [1.47235209620968, 58.4452450000239], [1.4776243899837753, 58.451062079785736], [1.4817879202142425, 58.45522561001621], [1.4876049999760748, 58.460497903790305], [1.4921565789973716, 58.464233288157864], [1.498462423088895, 58.46891002087305], [1.5033582167068515, 58.47218128558423], [1.5100920964023399, 58.47621741774789], [1.5152849554480685, 58.478993058735256], [1.5223820198049411, 58.482349720188296], [1.5278219342072972, 58.4846030065119], [1.5352138346161475, 58.487247870769565], [1.540848415025432, 58.48895710205024], [1.5484639634444988, 58.49086469762393], [1.5542389457713957, 58.49201341303014], [1.5620048003063212, 58.49316536873166], [1.5678645683139874, 58.493742505506084], [1.575705939540352, 58.49412772737231], [1.5815940604596472, 58.49412772737231], [1.589435431686012, 58.493742505506084], [1.5952951996936782, 58.49316536873166], [1.6030610542286037, 58.49201341303014], [1.6088360365555006, 58.49086469762393], [1.6102115944518454, 58.4905201383079], [1.6133067118421482, 58.494693421002644], [1.6170420962096808, 58.499245000023905], [1.622314389983776, 58.50506207978574], [1.6264779202142432, 58.50922561001621], [1.6322949999760754, 58.51449790379031], [1.6368465789973723, 58.518233288157866], [1.6431524230888956, 58.52291002087305], [1.6480482167068522, 58.52618128558423], [1.6547820964023405, 58.53021741774789], [1.6599749554480692, 58.53299305873526], [1.6670720198049418, 58.5363497201883], [1.6725119342072978, 58.5386030065119], [1.6799038346161481, 58.54124787076957], [1.6855384150254327, 58.542957102050245], [1.6931539634444994, 58.54486469762393], [1.6989289457713963, 58.546013413030146], [1.7066948003063218, 58.54716536873166], [1.712554568313988, 58.547742505506086], [1.7203959395403527, 58.54812772737231], [1.7262840604596479, 58.54812772737231], [1.7341254316860126, 58.547742505506086], [1.7399851996936788, 58.54716536873166], [1.7477510542286043, 58.546013413030146], [1.7535260365555012, 58.54486469762393], [1.761141584974568, 58.542957102050245], [1.7667761653838525, 58.54124787076957], [1.7741680657927028, 58.5386030065119], [1.7796079801950595, 58.5363497201883], [1.786705044551932, 58.53299305873526], [1.7918979035976599, 58.53021741774789], [1.7947244811562633, 58.528523232358005], [1.800912019804941, 58.5314497201883], [1.8063519342072971, 58.5337030065119], [1.8137438346161474, 58.53634787076957], [1.819378415025432, 58.538057102050246], [1.8269939634444987, 58.53996469762393], [1.8327689457713956, 58.541113413030146], [1.840534800306321, 58.54226536873166], [1.8463945683139873, 58.54284250550609], [1.854235939540352, 58.54322772737231], [1.8601240604596472, 58.54322772737231], [1.867965431686012, 58.54284250550609], [1.8738251996936781, 58.54226536873166], [1.8815910542286036, 58.541113413030146], [1.8873660365555005, 58.53996469762393], [1.8949815849745673, 58.538057102050246], [1.9006161653838518, 58.53634787076957], [1.908008065792702, 58.5337030065119], [1.9114805746588495, 58.53226464624408], [1.9167438346161472, 58.534147870769566], [1.9223784150254317, 58.535857102050244], [1.9299939634444985, 58.53776469762393], [1.9357689457713954, 58.538913413030144], [1.9435348003063209, 58.54006536873166], [1.949394568313987, 58.540642505506085], [1.9572359395403518, 58.54102772737231], [1.963124060459647, 58.54102772737231], [1.9709654316860117, 58.540642505506085], [1.9768251996936779, 58.54006536873166], [1.9845910542286034, 58.538913413030144], [1.9903660365555003, 58.53776469762393], [1.997981584974567, 58.535857102050244], [2.0036161653838516, 58.534147870769566], [2.011008065792702, 58.5315030065119], [2.0164479801950588, 58.5292497201883], [2.023545044551931, 58.52589305873526], [2.0287379035976585, 58.52311741774789], [2.035471783293147, 58.51908128558423], [2.040367576911103, 58.51581002087305], [2.0466734210026267, 58.511133288157865], [2.0512250000239263, 58.507397903790306], [2.057042079785758, 58.50212561001621], [2.0612056100162226, 58.497962079785744], [2.066477903790318, 58.49214500002391], [2.070213288157852, 58.48759342100264], [2.0748900208730365, 58.48128757691112], [2.0781612855842186, 58.47639178329316], [2.0821974177478837, 58.46965790359767], [2.0849730587352715, 58.4644650445519], [2.0883297201883058, 58.45736798019503], [2.090583006511887, 58.45192806579273], [2.093227870769561, 58.44453616538387], [2.0949371020502463, 58.43890158497456], [2.096844697623928, 58.4312860365555], [2.097993413030145, 58.42551105422861], [2.0991453687316626, 58.41774519969368], [2.0997225055060857, 58.41188543168601], [2.10010772737231, 58.40404406045965], [2.10010772737231, 58.402423670801895], [2.103795431686012, 58.40224250550608], [2.109655199693678, 58.401665368731656], [2.1174210542286036, 58.40051341303014], [2.123196036555501, 58.39936469762392], [2.1308115849745675, 58.39745710205024], [2.1364461653838513, 58.39574787076956], [2.1438380657927016, 58.39310300651189], [2.149277980195058, 58.39084972018829], [2.1563750445519307, 58.38749305873525], [2.1615679035976587, 58.384717417747886], [2.1683017832931473, 58.380681285584224], [2.1731975769111034, 58.37741002087304], [2.179503421002627, 58.37273328815786], [2.1840550000239265, 58.3689979037903], [2.1898720797857583, 58.3637256100162], [2.194035610016223, 58.35956207978574], [2.1993079037903183, 58.353745000023906], [2.2030432881578523, 58.34919342100264], [2.2077200208730368, 58.34288757691112], [2.210991285584219, 58.337991783293155], [2.211115350769576, 58.33778479303646], [2.2180959395403526, 58.33812772737231], [2.223984060459648, 58.33812772737231], [2.2273923784911056, 58.33796028744441], [2.2289321292304374, 58.34303616538387], [2.2315769934881113, 58.35042806579273], [2.2338302798116927, 58.35586798019503], [2.237186941264727, 58.3629650445519], [2.2399625822521148, 58.36815790359767], [2.2415400799905174, 58.37078979957123], [2.2416046312683373, 58.371445199693675], [2.242756586969855, 58.379211054228605], [2.243905302376072, 58.384986036555496], [2.2458128979497536, 58.39260158497456], [2.247522129230439, 58.39823616538387], [2.2501669934881128, 58.405628065792726], [2.252420279811694, 58.41106798019503], [2.2557769412647284, 58.4181650445519], [2.258552582252116, 58.42335790359767], [2.2625887144157812, 58.43009178329316], [2.2658599791269634, 58.43498757691112], [2.270536711842148, 58.44129342100264], [2.274272096209682, 58.44584500002391], [2.2795443899837773, 58.45166207978574], [2.283707920214242, 58.455825610016205], [2.2895249999760736, 58.461097903790304], [2.294076578997373, 58.46483328815786], [2.3003824230888967, 58.469510020873045], [2.305278216706853, 58.472781285584226], [2.3120120964023414, 58.47681741774789], [2.3172049554480694, 58.479593058735254], [2.324302019804942, 58.482949720188294], [2.3297419342072985, 58.485203006511895], [2.3371338346161488, 58.48784787076956], [2.3427684150254326, 58.48955710205024], [2.350383963444499, 58.491464697623925], [2.3561589457713965, 58.49261341303014], [2.363924800306322, 58.49376536873166], [2.369784568313988, 58.49434250550608], [2.3776259395403527, 58.49472772737231], [2.3835140604596483, 58.49472772737231], [2.391355431686013, 58.49434250550608], [2.397215199693679, 58.49376536873166], [2.4049810542286045, 58.49261341303014], [2.410756036555502, 58.491464697623925], [2.4183715849745684, 58.48955710205024], [2.4240061653838523, 58.48784787076956], [2.4271581483677496, 58.48672007322444], [2.4272867118421466, 58.48689342100264], [2.4310220962096807, 58.49144500002391], [2.436294389983776, 58.49726207978574], [2.4404579202142407, 58.501425610016206], [2.4462749999760725, 58.506697903790304], [2.450826578997372, 58.51043328815786], [2.4571324230888956, 58.515110020873045], [2.4620282167068517, 58.518381285584226], [2.4687620964023402, 58.52241741774789], [2.473954955448068, 58.525193058735255], [2.481052019804941, 58.528549720188295], [2.4864919342072973, 58.530803006511896], [2.4938838346161476, 58.533447870769564], [2.4995184150254315, 58.53515710205024], [2.507133963444498, 58.537064697623926], [2.5129089457713953, 58.53821341303014], [2.520674800306321, 58.53936536873166], [2.526534568313987, 58.53994250550608], [2.5343759395403516, 58.54032772737231], [2.540264060459647, 58.54032772737231], [2.548105431686012, 58.53994250550608], [2.548495466777876, 58.53990409040253], [2.5530320198049408, 58.542049720188295], [2.5584719342072972, 58.544303006511896], [2.5658638346161475, 58.546947870769564], [2.5714984150254314, 58.54865710205024], [2.579113963444498, 58.550564697623926], [2.5848889457713953, 58.55171341303014], [2.592654800306321, 58.55286536873166], [2.5985145683139868, 58.553442505506084], [2.6063559395403515, 58.55382772737231], [2.612244060459647, 58.55382772737231], [2.620085431686012, 58.553442505506084], [2.625945199693678, 58.55286536873166], [2.6337110542286033, 58.55171341303014], [2.6394860365555006, 58.550564697623926], [2.647101584974567, 58.54865710205024], [2.652736165383851, 58.546947870769564], [2.6601280657927013, 58.544303006511896], [2.665567980195058, 58.542049720188295], [2.668820774281106, 58.540511263162365], [2.674214568313988, 58.541042505506084], [2.6820559395403527, 58.54142772737231], [2.6879440604596483, 58.54142772737231], [2.695785431686013, 58.541042505506084], [2.701645199693679, 58.54046536873166], [2.7094110542286045, 58.53931341303014], [2.715186036555502, 58.53816469762393], [2.7228015849745684, 58.53625710205024], [2.7284361653838523, 58.534547870769565], [2.7358280657927025, 58.5319030065119], [2.741267980195059, 58.529649720188296], [2.7483650445519316, 58.526293058735256], [2.7535579035976596, 58.52351741774789], [2.760291783293148, 58.51948128558423], [2.7651875769111043, 58.51621002087305], [2.771493421002628, 58.511533288157864], [2.771863560622752, 58.511229522421985], [2.774232019804942, 58.5123497201883], [2.7796719342072986, 58.5146030065119], [2.787063834616149, 58.517247870769566], [2.7901300490284373, 58.518177996742764], [2.7944549999760735, 58.5220979037903], [2.799006578997373, 58.52583328815786], [2.8053124230888966, 58.530510020873045], [2.8102082167068527, 58.533781285584226], [2.8169420964023413, 58.53781741774789], [2.8221349554480692, 58.540593058735254], [2.829232019804942, 58.543949720188294], [2.8346719342072983, 58.546203006511895], [2.8420638346161486, 58.54884787076956], [2.8476984150254325, 58.55055710205024], [2.855313963444499, 58.552464697623925], [2.8610889457713964, 58.55361341303014], [2.868854800306322, 58.55476536873166], [2.874714568313988, 58.55534250550608], [2.8825559395403526, 58.55572772737231], [2.888444060459648, 58.55572772737231], [2.896285431686013, 58.55534250550608], [2.902145199693679, 58.55476536873166], [2.9099110542286044, 58.55361341303014], [2.9156860365555017, 58.552464697623925], [2.9233015849745683, 58.55055710205024], [2.928936165383852, 58.54884787076956], [2.9363280657927024, 58.546203006511895], [2.941767980195059, 58.543949720188294], [2.9488650445519315, 58.540593058735254], [2.9540579035976595, 58.53781741774789], [2.960791783293148, 58.533781285584226], [2.965687576911104, 58.530510020873045], [2.9719934210026278, 58.52583328815786], [2.9765450000239273, 58.5220979037903], [2.982362079785759, 58.516825610016205], [2.9865256100162236, 58.51266207978574], [2.991797903790319, 58.50684500002391], [2.995533288157853, 58.50229342100264], [3.0002100208730376, 58.49598757691112], [3.0034812855842197, 58.49109178329316], [3.0075174177478847, 58.48435790359767], [3.0102930587352725, 58.4791650445519], [3.013649720188307, 58.47206798019503], [3.015903006511888, 58.466628065792726], [3.0180308180220914, 58.460681231006554], [3.0183069412647283, 58.4612650445519], [3.021082582252116, 58.46645790359767], [3.025118714415781, 58.47319178329316], [3.0283899791269633, 58.47808757691112], [3.0330667118421477, 58.48439342100264], [3.036802096209682, 58.48894500002391], [3.042074389983777, 58.494762079785744], [3.046237920214242, 58.49892561001621], [3.0520549999760735, 58.504197903790306], [3.056606578997373, 58.507933288157865], [3.0629124230888967, 58.51261002087305], [3.0678082167068528, 58.51588128558423], [3.0745420964023413, 58.51991741774789], [3.0797349554480693, 58.52269305873526], [3.086832019804942, 58.5260497201883], [3.0922719342072984, 58.5283030065119], [3.0996638346161487, 58.530947870769566], [3.1052984150254326, 58.532657102050244], [3.112913963444499, 58.53456469762393], [3.1186889457713964, 58.535713413030145], [3.126454800306322, 58.53686536873166], [3.129953635340137, 58.53720997390426], [3.133632019804941, 58.5389497201883], [3.1390719342072977, 58.5412030065119], [3.146463834616148, 58.54384787076957], [3.152098415025432, 58.545557102050246], [3.1597139634444984, 58.54746469762393], [3.1654889457713957, 58.54861341303015], [3.1732548003063212, 58.54976536873166], [3.179114568313987, 58.55034250550609], [3.186955939540352, 58.55072772737231], [3.1928440604596475, 58.55072772737231], [3.2006854316860123, 58.55034250550609], [3.2065451996936782, 58.54976536873166], [3.2143110542286037, 58.54861341303015], [3.220086036555501, 58.54746469762393], [3.2277015849745676, 58.545557102050246], [3.2333361653838515, 58.54384787076957], [3.240728065792702, 58.5412030065119], [3.2461679801950583, 58.5389497201883], [3.253265044551931, 58.53559305873526], [3.258457903597659, 58.53281741774789], [3.2651917832931474, 58.52878128558423], [3.2700875769111035, 58.52551002087305], [3.276393421002627, 58.52083328815787], [3.2809450000239266, 58.51709790379031], [3.2867620797857584, 58.51182561001621], [3.290925610016223, 58.507662079785746], [3.2961979037903184, 58.50184500002391], [3.2999332881578525, 58.497293421002645], [3.304610020873037, 58.490987576911124], [3.307881285584219, 58.48609178329316], [3.307951058659519, 58.48597537394976], [3.310198415025431, 58.486657102050245], [3.3178139634444976, 58.48856469762393], [3.323588945771395, 58.489713413030145], [3.3313548003063205, 58.49086536873166], [3.3372145683139864, 58.491442505506086], [3.345055939540351, 58.49182772737231], [3.3509440604596468, 58.49182772737231], [3.3587854316860115, 58.491442505506086], [3.3646451996936775, 58.49086536873166], [3.372411054228603, 58.489713413030145], [3.3781860365555003, 58.48856469762393], [3.3856581746769376, 58.48669302445976], [3.387082582252116, 58.48935790359767], [3.391118714415781, 58.49609178329316], [3.394389979126963, 58.50098757691112], [3.3990667118421474, 58.50729342100264], [3.4028020962096814, 58.51184500002391], [3.408074389983777, 58.517662079785744], [3.4122379202142414, 58.52182561001621], [3.418054999976073, 58.527097903790306], [3.4226065789973728, 58.530833288157865], [3.4289124230888963, 58.53551002087305], [3.4338082167068524, 58.53878128558423], [3.440542096402341, 58.54281741774789], [3.445734955448069, 58.54559305873526], [3.4528320198049416, 58.5489497201883], [3.458271934207298, 58.5512030065119], [3.4656638346161484, 58.553847870769566], [3.4712984150254322, 58.555557102050244], [3.4789139634444988, 58.55746469762393], [3.484688945771396, 58.558613413030145], [3.4924548003063216, 58.55976536873166], [3.4983145683139876, 58.560342505506085], [3.5061559395403523, 58.56072772737231], [3.512044060459648, 58.56072772737231], [3.5198854316860126, 58.560342505506085], [3.5257451996936786, 58.55976536873166], [3.533511054228604, 58.558613413030145], [3.5392860365555014, 58.55746469762393], [3.546901584974568, 58.555557102050244], [3.552536165383852, 58.553847870769566], [3.559928065792702, 58.5512030065119], [3.5653679801950586, 58.5489497201883], [3.571762879843426, 58.54592515790925], [3.574134955448068, 58.54719305873525], [3.5812320198049408, 58.55054972018829], [3.5866719342072972, 58.552803006511894], [3.5940638346161475, 58.55544787076956], [3.5996984150254314, 58.55715710205024], [3.607313963444498, 58.559064697623924], [3.6130889457713953, 58.56021341303014], [3.620854800306321, 58.56136536873166], [3.6267145683139868, 58.56194250550608], [3.6345559395403515, 58.562327727372306], [3.640444060459647, 58.562327727372306], [3.648285431686012, 58.56194250550608], [3.654145199693678, 58.56136536873166], [3.6619110542286033, 58.56021341303014], [3.6676860365555006, 58.559064697623924], [3.675301584974567, 58.55715710205024], [3.680936165383851, 58.55544787076956], [3.6816629465998782, 58.555187824292325], [3.682585431686012, 58.55514250550608], [3.688445199693678, 58.55456536873166], [3.6962110542286033, 58.55341341303014], [3.7019860365555006, 58.552264697623926], [3.709601584974567, 58.55035710205024], [3.715236165383851, 58.548647870769564], [3.7226280657927013, 58.546003006511896], [3.728067980195058, 58.543749720188295], [3.7351650445519304, 58.540393058735255], [3.7403579035976584, 58.53761741774789], [3.747091783293147, 58.533581285584226], [3.751987576911103, 58.530310020873046], [3.7582934210026266, 58.52563328815786], [3.762845000023926, 58.521897903790304], [3.768662079785758, 58.516625610016206], [3.7728256100162225, 58.51246207978574], [3.778097903790318, 58.50664500002391], [3.781833288157852, 58.50209342100264], [3.7865100208730365, 58.49578757691112], [3.7897812855842186, 58.49089178329316], [3.7938174177478836, 58.48415790359767], [3.7965930587352714, 58.4789650445519], [3.7999497201883057, 58.47186798019503], [3.802203006511887, 58.466428065792726], [3.804847870769561, 58.45903616538387], [3.806557102050246, 58.45340158497456], [3.808464697623928, 58.445786036555496], [3.809613413030145, 58.440011054228606], [3.8107653687316625, 58.432245199693675], [3.8113425055060857, 58.42638543168601], [3.81172772737231, 58.418544060459645], [3.81172772737231, 58.41265593954035], [3.8113425055060857, 58.40481456831399], [3.8107653687316625, 58.39895480030632], [3.809613413030145, 58.39118894577139], [3.808550792030154, 58.38584678925297], [3.8092679801950586, 58.385549720188294], [3.8163650445519313, 58.382193058735254], [3.8215579035976592, 58.37941741774789], [3.828291783293148, 58.375381285584226], [3.833187576911104, 58.372110020873045], [3.8394934210026275, 58.36743328815786], [3.844045000023927, 58.3636979037903], [3.849862079785759, 58.358425610016205], [3.8540256100162233, 58.35426207978574], [3.859297903790319, 58.34844500002391], [3.863033288157853, 58.34389342100264], [3.8677100208730373, 58.33758757691112], [3.8709812855842194, 58.33269178329316], [3.8750174177478844, 58.32595790359767], [3.8777930587352722, 58.3207650445519], [3.8811497201883065, 58.31366798019503], [3.883403006511888, 58.308228065792726], [3.886047870769562, 58.30083616538387], [3.887757102050247, 58.295201584974556], [3.8883471762248214, 58.292845876820635], [3.888701584974567, 58.292757102050246], [3.894336165383851, 58.29104787076957], [3.9017280657927014, 58.2884030065119], [3.906528366242777, 58.286414656962016], [3.9102065789973732, 58.289433288157866], [3.916512423088897, 58.29411002087305], [3.921408216706853, 58.29738128558423], [3.9281420964023415, 58.30141741774789], [3.9333349554480694, 58.30419305873526], [3.940432019804942, 58.3075497201883], [3.9458719342072985, 58.3098030065119], [3.953263834616149, 58.31244787076957], [3.9588984150254327, 58.314157102050245], [3.9665139634444992, 58.31606469762393], [3.9722889457713966, 58.317213413030146], [3.980054800306322, 58.31836536873166], [3.985914568313988, 58.31894250550609], [3.993755939540353, 58.31932772737231], [3.999644060459648, 58.31932772737231], [4.007485431686013, 58.31894250550609], [4.0133451996936795, 58.31836536873166], [4.021111054228605, 58.317213413030146], [4.026886036555503, 58.31606469762393], [4.034501584974569, 58.314157102050245], [4.040136165383851, 58.31244787076957], [4.047528065792702, 58.3098030065119], [4.052967980195059, 58.3075497201883], [4.060065044551932, 58.30419305873526], [4.065257903597663, 58.30141741774789], [4.071991783293151, 58.29738128558423], [4.076887576911102, 58.29411002087305], [4.083193421002626, 58.289433288157866], [4.087745000023926, 58.28569790379031], [4.093562079785758, 58.28042561001621], [4.097725610016227, 58.27626207978574], [4.102997903790322, 58.270445000023905], [4.10673328815785, 58.265893421002644], [4.111410020873035, 58.25958757691112], [4.114681285584223, 58.25469178329316], [4.118717417747887, 58.24795790359767], [4.121493058735271, 58.24276504455191], [4.124849720188306, 58.23566798019504], [4.12710300651189, 58.23022806579273], [4.129747870769563, 58.222836165383875], [4.131457102050247, 58.21720158497456], [4.133364697623929, 58.2095860365555], [4.134513413030147, 58.20381105422861], [4.135665368731664, 58.19604519969368], [4.136242505506086, 58.19018543168601], [4.136627727372311, 58.18234406045965], [4.136627727372311, 58.176455939540354], [4.136242505506086, 58.16861456831399], [4.135665368731664, 58.162754800306324], [4.134513413030147, 58.15498894577139], [4.133364697623929, 58.1492139634445], [4.1327224953615795, 58.14665014829876], [4.133157903597663, 58.14641741774789], [4.139891783293151, 58.14238128558423], [4.144787576911102, 58.13911002087305], [4.151093421002626, 58.134433288157865], [4.155645000023926, 58.130697903790306], [4.161462079785758, 58.12542561001621], [4.165625610016227, 58.12126207978574], [4.170897903790322, 58.115445000023904], [4.17463328815785, 58.11089342100264], [4.179310020873035, 58.10458757691112], [4.182581285584223, 58.09969178329316], [4.186617417747887, 58.09295790359767], [4.189393058735271, 58.08776504455191], [4.1927497201883055, 58.08066798019504], [4.1950030065118895, 58.07522806579273], [4.197647870769563, 58.06783616538387], [4.1993571020502465, 58.06220158497456], [4.2012646976239285, 58.0545860365555], [4.202413413030147, 58.04881105422861], [4.203565368731664, 58.04104519969368], [4.204142505506086, 58.03518543168601], [4.2045277273723105, 58.02734406045965], [4.2045277273723105, 58.02145593954035], [4.204142505506086, 58.01361456831399], [4.203565368731664, 58.00775480030632], [4.202413413030147, 57.99998894577139], [4.2012646976239285, 57.9942139634445], [4.1993571020502465, 57.98659841502544], [4.197647870769563, 57.98096383461613], [4.1950030065118895, 57.97357193420727], [4.1927497201883055, 57.96813201980496], [4.189393058735271, 57.96103495544809], [4.186617417747887, 57.95584209640233], [4.182581285584223, 57.94910821670684], [4.179310020873035, 57.94421242308888], [4.17463328815785, 57.93790657899736], [4.170897903790322, 57.933354999976096], [4.170740786255402, 57.93318164749011], [4.171265368731663, 57.929645199693674], [4.171842505506085, 57.92378543168601], [4.172227727372309, 57.915944060459644], [4.172227727372309, 57.91005593954035], [4.171842505506085, 57.90221456831399], [4.171265368731663, 57.89635480030632], [4.170113413030146, 57.88858894577139], [4.168964697623927, 57.8828139634445], [4.167057102050245, 57.87519841502544], [4.165347870769562, 57.86956383461612], [4.162703006511888, 57.86217193420727], [4.160449720188304, 57.85673201980496], [4.15709305873527, 57.84963495544809], [4.154317417747886, 57.844442096402325], [4.150281285584222, 57.83770821670684], [4.147010020873034, 57.832812423088875], [4.1423332881578485, 57.82650657899735], [4.138597903790321, 57.82195499997609], [4.133325610016226, 57.81613792021426], [4.129162079785757, 57.81197438998379], [4.1233450000239245, 57.80670209620969], [4.118793421002625, 57.80296671184213], [4.112487576911101, 57.79828997912695], [4.112130587092607, 57.79805144615628], [4.116462079785758, 57.79412561001621], [4.120625610016227, 57.78996207978574], [4.125897903790322, 57.784145000023905], [4.12963328815785, 57.779593421002645], [4.134310020873035, 57.77328757691112], [4.137537074748125, 57.76845794948524], [4.1406620797857565, 57.76562561001621], [4.144825610016226, 57.76146207978574], [4.1500979037903205, 57.755645000023904], [4.153833288157848, 57.75109342100264], [4.158510020873034, 57.74478757691112], [4.161781285584222, 57.73989178329316], [4.165817417747886, 57.73315790359767], [4.1685930587352695, 57.72796504455191], [4.171949720188304, 57.72086798019504], [4.174203006511888, 57.71542806579273], [4.176847870769562, 57.708036165383874], [4.178557102050245, 57.70240158497456], [4.180464697623927, 57.6947860365555], [4.181613413030146, 57.68901105422861], [4.182765368731663, 57.68124519969368], [4.183342505506085, 57.67538543168601], [4.183727727372309, 57.66754406045965], [4.183727727372309, 57.66165593954035], [4.183342505506085, 57.65381456831399], [4.182765368731663, 57.64795480030632], [4.181613413030146, 57.64018894577139], [4.180464697623927, 57.6344139634445], [4.178557102050245, 57.62679841502544], [4.176847870769562, 57.62116383461613], [4.174203006511888, 57.61377193420727], [4.171949720188304, 57.60833201980496], [4.1685930587352695, 57.60123495544809], [4.165817417747886, 57.59604209640233], [4.161781285584222, 57.58930821670684], [4.158510020873034, 57.58441242308888], [4.153833288157848, 57.57810657899736], [4.1514880818734365, 57.57524893687157], [4.151142505506085, 57.56821456831399], [4.150565368731663, 57.56235480030632], [4.149413413030146, 57.55458894577139], [4.148264697623928, 57.5488139634445], [4.146357102050246, 57.54119841502544], [4.144647870769562, 57.53556383461613], [4.142003006511889, 57.52817193420727], [4.139749720188305, 57.52273201980496], [4.13639305873527, 57.51563495544809], [4.133617417747886, 57.51044209640233], [4.129581285584222, 57.50370821670684], [4.126310020873034, 57.49881242308888], [4.121633288157849, 57.49250657899736], [4.117897903790321, 57.4879549999761], [4.112625610016226, 57.482137920214264], [4.108462079785757, 57.47797438998379], [4.102645000023925, 57.472702096209694], [4.098093421002625, 57.468966711842135], [4.091787576911101, 57.46428997912695], [4.08689178329315, 57.46101871441577], [4.080157903597662, 57.45698258225211], [4.074965044551931, 57.454206941264744], [4.067867980195058, 57.450850279811704], [4.062428065792701, 57.4485969934881], [4.05503616538385, 57.445952129230434], [4.049401584974568, 57.444242897949756], [4.041786036555502, 57.44233530237607], [4.036011054228604, 57.441186586969856], [4.028245199693679, 57.44003463126834], [4.023581799496437, 57.439575326438494], [4.026285431686012, 57.439442505506086], [4.032145199693678, 57.43886536873166], [4.039911054228604, 57.437713413030146], [4.045686036555502, 57.43656469762393], [4.053301584974568, 57.434657102050245], [4.05893616538385, 57.43294787076957], [4.066328065792701, 57.4303030065119], [4.071767980195056, 57.4280497201883], [4.073128394610335, 57.42740629208926], [4.07793616538385, 57.42594787076956], [4.085328065792701, 57.423303006511894], [4.090767980195058, 57.42104972018829], [4.097865044551931, 57.41769305873525], [4.103057903597662, 57.41491741774789], [4.10979178329315, 57.410881285584225], [4.114687576911101, 57.407610020873044], [4.120993421002625, 57.40293328815786], [4.125545000023925, 57.3991979037903], [4.131362079785757, 57.393925610016204], [4.135525610016226, 57.38976207978573], [4.140797903790321, 57.3839450000239], [4.144533288157849, 57.37939342100264], [4.149210020873034, 57.37308757691112], [4.152481285584222, 57.368191783293156], [4.156517417747886, 57.36145790359767], [4.15929305873527, 57.356265044551904], [4.162649720188305, 57.349167980195034], [4.164903006511889, 57.343728065792725], [4.167547870769562, 57.33633616538387], [4.169257102050246, 57.330701584974555], [4.171164697623928, 57.323086036555495], [4.172313413030146, 57.317311054228604], [4.173465368731663, 57.30954519969367], [4.174042505506085, 57.303685431686006], [4.17442772737231, 57.29584406045964], [4.17442772737231, 57.29292118812733], [4.176064697623929, 57.2863860365555], [4.177213413030147, 57.28061105422861], [4.178365368731664, 57.27284519969368], [4.178942505506086, 57.26698543168601], [4.179327727372311, 57.25914406045965], [4.179327727372311, 57.25325593954035], [4.178942505506086, 57.24541456831399], [4.178365368731664, 57.23955480030632], [4.177213413030147, 57.23178894577139], [4.176064697623929, 57.2260139634445], [4.174157102050247, 57.21839841502544], [4.172447870769563, 57.212763834616126], [4.172114416141022, 57.21183189136123], [4.1729030065118895, 57.209928065792724], [4.175547870769563, 57.20253616538387], [4.1772571020502465, 57.196901584974555], [4.1791646976239285, 57.189286036555494], [4.180313413030147, 57.1835110542286], [4.181465368731664, 57.17574519969367], [4.182042505506086, 57.169885431686005], [4.1824277273723105, 57.16204406045964], [4.1824277273723105, 57.15615593954035], [4.182076109437546, 57.14899859205289], [4.182113413030146, 57.14881105422861], [4.183265368731663, 57.14104519969368], [4.183842505506085, 57.13518543168601], [4.18422772737231, 57.12734406045965], [4.18422772737231, 57.121455939540354], [4.183842505506085, 57.11361456831399], [4.183265368731663, 57.107754800306324], [4.182113413030146, 57.09998894577139], [4.180964697623928, 57.0942139634445], [4.179057102050246, 57.08659841502544], [4.177347870769562, 57.08096383461613], [4.174703006511889, 57.07357193420727], [4.173402001059772, 57.07043102920005], [4.172713413030147, 57.06578894577139], [4.1715646976239285, 57.0600139634445], [4.169657102050246, 57.052398415025436], [4.167947870769563, 57.04676383461612], [4.1653030065118894, 57.03937193420727], [4.163049720188305, 57.03393201980496], [4.159693058735271, 57.02683495544809], [4.156917417747887, 57.021642096402324], [4.152881285584223, 57.014908216706836], [4.149610020873035, 57.010012423088874], [4.14493328815785, 57.00370657899735], [4.141197903790322, 56.99915499997609], [4.137660075753843, 56.995251608254456], [4.138165368731664, 56.99184519969368], [4.138742505506086, 56.98598543168601], [4.13912772737231, 56.97814406045965], [4.13912772737231, 56.972255939540354], [4.138742505506086, 56.96441456831399], [4.138165368731664, 56.958554800306324], [4.137013413030147, 56.95078894577139], [4.135864697623928, 56.9450139634445], [4.133957102050246, 56.93739841502544], [4.132247870769563, 56.93176383461613], [4.129603006511889, 56.92437193420727], [4.127349720188305, 56.91893201980496], [4.1239930587352704, 56.91183495544809], [4.121217417747887, 56.90664209640233], [4.1171812855842225, 56.89990821670684], [4.113910020873035, 56.89501242308888], [4.109233288157849, 56.88870657899736], [4.105497903790321, 56.8841549999761], [4.100225610016227, 56.878337920214264], [4.096062079785757, 56.87417438998379], [4.090245000023925, 56.868902096209695], [4.085693421002626, 56.865166711842136], [4.079387576911102, 56.86048997912695], [4.07449178329315, 56.85721871441577], [4.067757903597663, 56.85318258225211], [4.062565044551931, 56.850406941264744], [4.055467980195059, 56.847050279811704], [4.050028065792701, 56.8447969934881], [4.0426361653838505, 56.842152129230435], [4.037001584974568, 56.84044289794976], [4.029386036555502, 56.83853530237607], [4.0236110542286045, 56.837386586969856], [4.015845199693679, 56.83623463126834], [4.009985431686013, 56.835657494493915], [4.002144060459647, 56.83527227262769], [3.9962559395403523, 56.83527227262769], [3.9884145683139876, 56.835657494493915], [3.9825548003063216, 56.83623463126834], [3.974788945771396, 56.837386586969856], [3.9690139634444987, 56.83853530237607], [3.961398415025432, 56.84044289794976], [3.9557638346161483, 56.842152129230435], [3.948371934207298, 56.8447969934881], [3.9429320198049416, 56.847050279811704], [3.935834955448069, 56.850406941264744], [3.930642096402341, 56.85318258225211], [3.9239082167068524, 56.85721871441577], [3.9190124230888963, 56.86048997912695], [3.9127065789973727, 56.865166711842136], [3.908154999976073, 56.868902096209695], [3.9023379202142414, 56.87417438998379], [3.899678452986329, 56.87683385721171], [3.897397903790319, 56.87405499997609], [3.8921256100162234, 56.868237920214256], [3.887962079785759, 56.86407438998379], [3.882145000023927, 56.85880209620969], [3.8775934210026275, 56.855066711842134], [3.871287576911104, 56.85038997912695], [3.866391783293148, 56.84711871441577], [3.8596579035976593, 56.84308258225211], [3.8544650445519313, 56.84030694126474], [3.8473679801950587, 56.8369502798117], [3.841928065792702, 56.8346969934881], [3.834536165383852, 56.83205212923043], [3.828901584974568, 56.830342897949755], [3.8212860365555015, 56.82843530237607], [3.815511054228604, 56.827286586969855], [3.8077451996936786, 56.82613463126834], [3.8018854316860127, 56.825557494493914], [3.794044060459648, 56.82517227262769], [3.7881559395403523, 56.82517227262769], [3.7803145683139876, 56.825557494493914], [3.7744548003063216, 56.82613463126834], [3.766688945771396, 56.827286586969855], [3.760913963444499, 56.82843530237607], [3.7532984150254323, 56.830342897949755], [3.7476638346161484, 56.83205212923043], [3.740271934207298, 56.8346969934881], [3.7348320198049416, 56.8369502798117], [3.727734955448069, 56.84030694126474], [3.722542096402341, 56.84308258225211], [3.7158082167068525, 56.84711871441577], [3.7109124230888964, 56.85038997912695], [3.704606578997373, 56.855066711842134], [3.7000549999760732, 56.85880209620969], [3.6942379202142415, 56.86407438998379], [3.690074389983777, 56.868237920214256], [3.6848020962096815, 56.87405499997609], [3.682345991677594, 56.87704777200765], [3.6770110542286036, 56.87598658696985], [3.669245199693678, 56.874834631268335], [3.663385431686012, 56.87425749449391], [3.6555440604596474, 56.873872272627686], [3.649655939540352, 56.873872272627686], [3.642394275578594, 56.87422901530221], [3.639510020873036, 56.86991242308888], [3.634833288157852, 56.863606578997356], [3.6310979037903177, 56.85905499997609], [3.6258256100162223, 56.853237920214255], [3.6216620797857577, 56.84907438998379], [3.615845000023926, 56.84380209620969], [3.6112934210026264, 56.840066711842134], [3.604987576911103, 56.83538997912695], [3.6000917832931467, 56.83211871441577], [3.593357903597658, 56.82808258225211], [3.58816504455193, 56.82530694126474], [3.5810679801950576, 56.8219502798117], [3.575628065792701, 56.8196969934881], [3.568236165383851, 56.81705212923043], [3.562601584974567, 56.815342897949755], [3.5549860365555004, 56.81343530237607], [3.549211054228603, 56.812286586969854], [3.5414451996936775, 56.81113463126834], [3.5355854316860116, 56.810557494493914], [3.527744060459647, 56.81017227262769], [3.5218559395403513, 56.81017227262769], [3.5140145683139865, 56.810557494493914], [3.5081548003063205, 56.81113463126834], [3.500388945771395, 56.812286586969854], [3.4946139634444977, 56.81343530237607], [3.486998415025431, 56.815342897949755], [3.4813638346161473, 56.81705212923043], [3.473971934207297, 56.8196969934881], [3.4685320198049405, 56.8219502798117], [3.464236999832889, 56.823981672970234], [3.4618015849745674, 56.823242897949754], [3.454186036555501, 56.82133530237607], [3.4484110542286035, 56.820186586969854], [3.440645199693678, 56.81903463126834], [3.434785431686012, 56.81845749449391], [3.4269440604596473, 56.81807227262769], [3.4210559395403517, 56.81807227262769], [3.413214568313987, 56.81845749449391], [3.407354800306321, 56.81903463126834], [3.3995889457713955, 56.820186586969854], [3.393813963444498, 56.82133530237607], [3.3861984150254316, 56.823242897949754], [3.3805638346161477, 56.82495212923043], [3.377683542287814, 56.825982714304565], [3.3760280657927026, 56.8252969934881], [3.3686361653838524, 56.822652129230434], [3.3630015849745685, 56.820942897949756], [3.355386036555502, 56.81903530237607], [3.3496110542286046, 56.817886586969856], [3.341845199693679, 56.81673463126834], [3.335985431686013, 56.816157494493915], [3.3281440604596484, 56.81577227262769], [3.322255939540353, 56.81577227262769], [3.314414568313988, 56.816157494493915], [3.308554800306322, 56.81673463126834], [3.3007889457713966, 56.817886586969856], [3.2950139634444993, 56.81903530237607], [3.2873984150254327, 56.820942897949756], [3.281763834616149, 56.822652129230434], [3.2743719342072986, 56.8252969934881], [3.268932019804942, 56.8275502798117], [3.2618349554480695, 56.83090694126474], [3.2566420964023415, 56.83368258225211], [3.249908216706853, 56.83771871441577], [3.245012423088897, 56.84098997912695], [3.2387065789973732, 56.845666711842135], [3.2341549999760737, 56.849402096209694], [3.2299056809435007, 56.85325345448513], [3.225885431686012, 56.85285749449391], [3.2180440604596474, 56.852472272627686], [3.212155939540352, 56.852472272627686], [3.204314568313987, 56.85285749449391], [3.198454800306321, 56.853434631268335], [3.1906889457713956, 56.85458658696985], [3.1849139634444983, 56.85573530237607], [3.1772984150254318, 56.85764289794975], [3.171663834616148, 56.85935212923043], [3.1688241770887293, 56.86036817494031], [3.1679280657927027, 56.8599969934881], [3.1605361653838524, 56.857352129230435], [3.1549015849745685, 56.85564289794976], [3.147286036555502, 56.85373530237607], [3.143932223127982, 56.85306818740746], [3.139733288157853, 56.84740657899736], [3.1359979037903187, 56.84285499997609], [3.1307256100162233, 56.83703792021426], [3.1265620797857587, 56.83287438998379], [3.120745000023927, 56.827602096209695], [3.1161934210026274, 56.823866711842136], [3.109887576911104, 56.81918997912695], [3.1049917832931477, 56.81591871441577], [3.098257903597659, 56.81188258225211], [3.093065044551931, 56.809106941264744], [3.0859679801950586, 56.805750279811704], [3.080528065792702, 56.8034969934881], [3.073136165383852, 56.800852129230435], [3.067501584974568, 56.79914289794976], [3.0598860365555014, 56.79723530237607], [3.054111054228604, 56.79608658696986], [3.0463451996936786, 56.79493463126834], [3.0404854316860126, 56.794357494493916], [3.032644060459648, 56.79397227262769], [3.0267559395403523, 56.79397227262769], [3.0189145683139875, 56.794357494493916], [3.0130548003063216, 56.79493463126834], [3.005288945771396, 56.79608658696986], [2.9995139634444987, 56.79723530237607], [2.991898415025432, 56.79914289794976], [2.9862638346161483, 56.800852129230435], [2.978871934207298, 56.8034969934881], [2.9734320198049415, 56.805750279811704], [2.966334955448069, 56.809106941264744], [2.961142096402341, 56.81188258225211], [2.9544082167068524, 56.81591871441577], [2.9495124230888963, 56.81918997912695], [2.9432065789973727, 56.823866711842136], [2.938654999976073, 56.827602096209695], [2.9328379202142414, 56.83287438998379], [2.928674389983777, 56.83703792021426], [2.9239597235500505, 56.84223975301617], [2.919028065792702, 56.8401969934881], [2.9116361653838516, 56.83755212923043], [2.9060015849745677, 56.83584289794975], [2.898386036555501, 56.83393530237607], [2.892611054228604, 56.83278658696985], [2.8848451996936784, 56.83163463126834], [2.8789854316860124, 56.83105749449391], [2.8711440604596477, 56.83067227262769], [2.865255939540352, 56.83067227262769], [2.8574145683139873, 56.83105749449391], [2.8515548003063214, 56.83163463126834], [2.843788945771396, 56.83278658696985], [2.8380139634444985, 56.83393530237607], [2.830398415025432, 56.83584289794975], [2.824763834616148, 56.83755212923043], [2.817371934207298, 56.8401969934881], [2.8119320198049413, 56.8424502798117], [2.8048349554480687, 56.84580694126474], [2.7996420964023407, 56.84858258225211], [2.792908216706852, 56.85261871441577], [2.788012423088896, 56.85588997912695], [2.7817065789973725, 56.86056671184213], [2.777154999976073, 56.86430209620969], [2.771337920214241, 56.86957438998379], [2.7671743899837766, 56.87373792021425], [2.761902096209681, 56.87955499997609], [2.758166711842147, 56.884106578997354], [2.7534899791269627, 56.890412423088875], [2.7502187144157806, 56.89530821670684], [2.7461825822521155, 56.902042096402326], [2.7434069412647277, 56.9072349554481], [2.7412819613933435, 56.911727847899506], [2.7340440604596474, 56.91137227262769], [2.728155939540352, 56.91137227262769], [2.720314568313987, 56.91175749449391], [2.714454800306321, 56.91233463126834], [2.7066889457713956, 56.91348658696985], [2.7009139634444983, 56.91463530237607], [2.6932984150254318, 56.91654289794975], [2.687663834616148, 56.91825212923043], [2.6869719973088935, 56.918499672577184], [2.686727417747884, 56.918042096402324], [2.682691285584219, 56.911308216706836], [2.679420020873037, 56.906412423088874], [2.6747432881578526, 56.90010657899735], [2.6710079037903185, 56.895554999976085], [2.665735610016223, 56.88973792021425], [2.6615720797857585, 56.88557438998379], [2.6557550000239267, 56.88030209620969], [2.651203421002627, 56.87656671184213], [2.6448975769111036, 56.87188997912695], [2.6400017832931475, 56.86861871441577], [2.633267903597659, 56.864582582252105], [2.628075044551931, 56.86180694126474], [2.6209779801950583, 56.8584502798117], [2.615538065792702, 56.8561969934881], [2.6081461653838516, 56.85355212923043], [2.6025115849745677, 56.85184289794975], [2.594896036555501, 56.84993530237607], [2.589121054228604, 56.84878658696985], [2.5813551996936783, 56.847634631268335], [2.5754954316860124, 56.84705749449391], [2.5676540604596476, 56.846672272627686], [2.561765939540352, 56.846672272627686], [2.5539245683139873, 56.84705749449391], [2.5480648003063213, 56.847634631268335], [2.540298945771396, 56.84878658696985], [2.5345239634444985, 56.84993530237607], [2.5330286739413626, 56.85030985289831], [2.528116165383851, 56.848552129230434], [2.522481584974567, 56.846842897949756], [2.5148660365555005, 56.84493530237607], [2.509091054228603, 56.843786586969856], [2.5013251996936776, 56.84263463126834], [2.4954654316860116, 56.842057494493915], [2.487624060459647, 56.84167227262769], [2.4817359395403513, 56.84167227262769], [2.4738945683139866, 56.842057494493915], [2.4680348003063206, 56.84263463126834], [2.464341858848104, 56.843182427386466], [2.4600640604596475, 56.84297227262769], [2.454175939540352, 56.84297227262769], [2.446334568313987, 56.843357494493915], [2.4404748003063212, 56.84393463126834], [2.4327089457713957, 56.845086586969856], [2.4269339634444984, 56.84623530237607], [2.419318415025432, 56.84814289794976], [2.413683834616148, 56.849852129230435], [2.4062919342072977, 56.8524969934881], [2.4008520198049412, 56.854750279811704], [2.3937549554480686, 56.858106941264744], [2.3885620964023406, 56.86088258225211], [2.381828216706852, 56.86491871441577], [2.376932423088896, 56.86818997912695], [2.3706265789973724, 56.872866711842136], [2.366074999976073, 56.876602096209695], [2.360257920214241, 56.88187438998379], [2.3560943899837765, 56.88603792021426], [2.350822096209681, 56.89185499997609], [2.347086711842147, 56.89640657899736], [2.344540282381953, 56.89984004166113], [2.3422500208730366, 56.896412423088876], [2.337573288157852, 56.890106578997354], [2.333837903790318, 56.88555499997609], [2.3285656100162226, 56.879737920214254], [2.324402079785758, 56.87557438998379], [2.3185850000239263, 56.87030209620969], [2.317547201675876, 56.86945039711629], [2.3152500208730373, 56.866012423088875], [2.310573288157853, 56.859706578997354], [2.306837903790319, 56.85515499997609], [2.3015656100162234, 56.84933792021425], [2.297402079785759, 56.84517438998379], [2.291585000023927, 56.83990209620969], [2.2870334210026275, 56.83616671184213], [2.280727576911104, 56.83148997912695], [2.275831783293148, 56.82821871441577], [2.2690979035976593, 56.82418258225211], [2.2639050445519313, 56.82140694126474], [2.2568079801950587, 56.8180502798117], [2.251368065792702, 56.8157969934881], [2.243976165383852, 56.81315212923043], [2.238341584974568, 56.81144289794975], [2.2307260365555015, 56.80953530237607], [2.224951054228604, 56.80838658696985], [2.2171851996936787, 56.80723463126834], [2.2113254316860127, 56.80665749449391], [2.203484060459648, 56.80627227262769], [2.1975959395403524, 56.80627227262769], [2.1897545683139876, 56.80665749449391], [2.1838948003063217, 56.80723463126834], [2.176128945771396, 56.80838658696985], [2.170353963444499, 56.80953530237607], [2.1627384150254323, 56.81144289794975], [2.1571038346161484, 56.81315212923043], [2.149711934207298, 56.8157969934881], [2.1442720198049416, 56.8180502798117], [2.137174955448069, 56.82140694126474], [2.131982096402341, 56.82418258225211], [2.1252482167068525, 56.82821871441577], [2.1203524230888964, 56.83148997912695], [2.114046578997373, 56.83616671184213], [2.1094949999760733, 56.83990209620969], [2.1036779202142415, 56.84517438998379], [2.099514389983777, 56.84933792021425], [2.0942420962096815, 56.85515499997609], [2.0905067118421474, 56.859706578997354], [2.085829979126963, 56.866012423088875], [2.0848413850812717, 56.867491958634595], [2.0804879035976587, 56.86488258225211], [2.0752950445519307, 56.86210694126474], [2.068197980195058, 56.8587502798117], [2.0627580657927016, 56.8564969934881], [2.0553661653838513, 56.85385212923043], [2.0497315849745674, 56.852142897949754], [2.042116036555501, 56.85023530237607], [2.0363410542286036, 56.849086586969854], [2.028575199693678, 56.84793463126834], [2.022715431686012, 56.84735749449391], [2.0148740604596473, 56.84697227262769], [2.0089859395403518, 56.84697227262769], [2.001144568313987, 56.84735749449391], [1.995284800306321, 56.84793463126834], [1.9875189457713955, 56.849086586969854], [1.9817439634444987, 56.85023530237607], [1.974128415025432, 56.852142897949754], [1.968493834616147, 56.85385212923043], [1.9611019342072968, 56.8564969934881], [1.9556620198049413, 56.8587502798117], [1.9485649554480686, 56.86210694126474], [1.9433720964023407, 56.86488258225211], [1.9421425321186028, 56.86561955472226], [1.940836165383852, 56.86515212923043], [1.935201584974567, 56.86344289794975], [1.9275860365555002, 56.86153530237607], [1.9218110542286035, 56.86038658696985], [1.9140451996936783, 56.859234631268336], [1.9081854316860118, 56.85865749449391], [1.9063569177379929, 56.858567665363886], [1.90632128558422, 56.85850821670684], [1.9030500208730365, 56.853612423088876], [1.898373288157852, 56.847306578997355], [1.8946379037903194, 56.842754999976094], [1.8893656100162242, 56.83693792021426], [1.885202079785757, 56.83277438998379], [1.8793850000239247, 56.82750209620969], [1.8748334210026278, 56.82376671184213], [1.8685275769111045, 56.81908997912695], [1.863631783293148, 56.81581871441577], [1.8568979035976596, 56.81178258225211], [1.8517050445519303, 56.80900694126474], [1.8446079801950575, 56.8056502798117], [1.8391680657927025, 56.8033969934881], [1.8317761653838525, 56.80075212923043], [1.8261415849745675, 56.799042897949754], [1.8185260365555007, 56.79713530237607], [1.812751054228604, 56.79598658696985], [1.8049851996936788, 56.79483463126834], [1.7991254316860124, 56.79425749449391], [1.7912840604596474, 56.79387227262769], [1.7853959395403523, 56.79387227262769], [1.7775545683139875, 56.79425749449391], [1.7716948003063213, 56.79483463126834], [1.7639289457713958, 56.79598658696985], [1.758153963444499, 56.79713530237607], [1.7505384150254322, 56.799042897949754], [1.7449038346161472, 56.80075212923043], [1.737511934207297, 56.8033969934881], [1.7320720198049415, 56.8056502798117], [1.724974955448069, 56.80900694126474], [1.719782096402341, 56.81178258225211], [1.7130482167068524, 56.81581871441577], [1.7081524230888951, 56.81908997912695], [1.7018465789973718, 56.82376671184213], [1.697294999976075, 56.82750209620969], [1.6914779202142427, 56.83277438998379], [1.6873143899837755, 56.83693792021426], [1.6820420962096803, 56.842754999976094], [1.6783067118421477, 56.847306578997355], [1.673629979126963, 56.853612423088876], [1.6703587144157788, 56.85850821670684], [1.6663225822521142, 56.865242096402326], [1.663546941264729, 56.87043495544809], [1.6601902798116943, 56.87753201980496], [1.6579369934881112, 56.88297193420727], [1.6552921292304374, 56.890363834616124], [1.6535828979497529, 56.89599841502544], [1.6516753023760713, 56.9036139634445], [1.6512477546109254, 56.905763391208986], [1.6490689457713956, 56.906086586969856], [1.6432939634444987, 56.90723530237607], [1.635678415025432, 56.909142897949756], [1.630043834616147, 56.910852129230435], [1.622651934207297, 56.9134969934881], [1.6172120198049413, 56.915750279811704], [1.6150453960797269, 56.91677501651634], [1.6134248003063214, 56.91693463126834], [1.605658945771396, 56.91808658696986], [1.599883963444499, 56.91923530237607], [1.5922684150254323, 56.92114289794976], [1.5866338346161473, 56.922852129230435], [1.579827074891004, 56.9252876268037], [1.5752561653838524, 56.92365212923043], [1.5696215849745674, 56.921942897949755], [1.5620060365555006, 56.92003530237607], [1.556231054228604, 56.918886586969855], [1.5484651996936787, 56.91773463126834], [1.5426054316860123, 56.917157494493914], [1.5347640604596473, 56.91677227262769], [1.5288759395403522, 56.91677227262769], [1.5210345683139874, 56.917157494493914], [1.5151748003063212, 56.91773463126834], [1.5074089457713957, 56.918886586969855], [1.5016339634444988, 56.92003530237607], [1.494018415025432, 56.921942897949755], [1.488383834616147, 56.92365212923043], [1.4852397634195216, 56.9247770958928], [1.4836051996936792, 56.92453463126834], [1.4777454316860128, 56.92395749449391], [1.4699040604596478, 56.92357227262769], [1.4640159395403527, 56.92357227262769], [1.456174568313988, 56.92395749449391], [1.4503148003063218, 56.92453463126834], [1.4425489457713963, 56.92568658696985], [1.4367739634444994, 56.92683530237607], [1.4291584150254326, 56.92874289794975], [1.4235238346161476, 56.93045212923043], [1.4161319342072975, 56.9330969934881], [1.410692019804942, 56.9353502798117], [1.4035949554480693, 56.93870694126474], [1.3984020964023414, 56.94148258225211], [1.3916682167068528, 56.94551871441577], [1.3867724230888956, 56.94878997912695], [1.3804665789973722, 56.95346671184213], [1.3759149999760754, 56.95720209620969], [1.3712507718677027, 56.961429506151376], [1.3687580657927032, 56.960396993488104], [1.3613661653838531, 56.957752129230435], [1.3557315849745681, 56.95604289794976], [1.3481160365555014, 56.95413530237607], [1.3423410542286047, 56.95298658696986], [1.3345751996936794, 56.95183463126834], [1.328715431686013, 56.951257494493916], [1.320874060459648, 56.95087227262769], [1.314985939540353, 56.95087227262769], [1.3071445683139882, 56.951257494493916], [1.301284800306322, 56.95183463126834], [1.2935189457713965, 56.95298658696986], [1.2877439634444996, 56.95413530237607], [1.2801284150254328, 56.95604289794976], [1.2744938346161478, 56.957752129230435], [1.2671019342072978, 56.960396993488104], [1.2616620198049422, 56.962650279811704], [1.2545649554480696, 56.966006941264745], [1.2493720964023416, 56.96878258225211], [1.242638216706853, 56.97281871441577], [1.2377424230888958, 56.976089979126954], [1.2314365789973725, 56.980766711842136], [1.2268849999760756, 56.984502096209695], [1.2210679202142434, 56.98977438998379], [1.2169043899837761, 56.993937920214265], [1.211632096209681, 56.9997549999761], [1.2078967118421484, 57.00430657899736], [1.2032199791269638, 57.01061242308888], [1.1999487144157794, 57.01550821670684], [1.1959125822521148, 57.02224209640233], [1.1931369412647297, 57.02743495544809], [1.189780279811695, 57.03453201980496], [1.1875269934881119, 57.03997193420727], [1.1848821292304381, 57.04736383461613], [1.1831728979497536, 57.05299841502544], [1.181265302376072, 57.0606139634445], [1.1801165869698544, 57.06638894577139], [1.178964631268337, 57.074154800306324], [1.1783874944939146, 57.08001456831399], [1.1780022726276902, 57.087855939540354], [1.1780022726276902, 57.09374406045965], [1.1783874944939146, 57.10158543168601], [1.178964631268337, 57.10744519969368], [1.1801165869698544, 57.11521105422861], [1.181265302376072, 57.1209860365555], [1.1831728979497536, 57.12860158497456], [1.1848821292304381, 57.134236165383875], [1.1875269934881119, 57.14162806579273], [1.1877031294929559, 57.142053295724445], [1.1857287144157795, 57.14500821670684], [1.181692582252115, 57.15174209640233], [1.1789169412647298, 57.156934955448094], [1.175560279811695, 57.164032019804964], [1.173306993488112, 57.16947193420727], [1.1706621292304382, 57.17686383461613], [1.1689528979497537, 57.18249841502544], [1.167045302376072, 57.1901139634445], [1.1658965869698545, 57.195888945771394], [1.1647446312683372, 57.203654800306325], [1.1641674944939147, 57.20951456831399], [1.1637822726276903, 57.217355939540354], [1.1637822726276903, 57.22324406045965], [1.1641674944939147, 57.23108543168601], [1.1647446312683372, 57.23694519969368], [1.1658965869698545, 57.24471105422861], [1.167045302376072, 57.2504860365555], [1.1689528979497537, 57.25810158497456], [1.1706621292304382, 57.263736165383875], [1.173306993488112, 57.27112806579273], [1.1755602798116946, 57.27656798019503], [1.1789169412647291, 57.2836650445519], [1.1816925822521156, 57.28885790359767], [1.1857287144157804, 57.29559178329316], [1.1889999791269639, 57.300487576911124], [1.1936767118421485, 57.306793421002645], [1.197412096209681, 57.311345000023906], [1.2026843899837762, 57.31716207978574], [1.2068479202142435, 57.32132561001621], [1.2126649999760757, 57.32659790379031], [1.2172165789973726, 57.33033328815787], [1.223522423088896, 57.33501002087305], [1.2284182167068525, 57.33828128558423], [1.2351520964023408, 57.34231741774789], [1.2403449554480694, 57.34509305873526], [1.247442019804942, 57.3484497201883], [1.252881934207298, 57.3507030065119], [1.2602738346161484, 57.35334787076957], [1.265908415025433, 57.355057102050246], [1.2735239634444997, 57.35696469762393], [1.2792989457713966, 57.358113413030146], [1.2798745808509402, 57.358198800428134], [1.2858224230888946, 57.36261002087305], [1.2864550571824405, 57.363032733459974], [1.286747494493914, 57.368985431686006], [1.2871865435869967, 57.3734431719366], [1.286788415025433, 57.373542897949754], [1.281153834616148, 57.37525212923043], [1.2737619342072979, 57.3778969934881], [1.2683220198049423, 57.3801502798117], [1.2612249554480697, 57.38350694126474], [1.2560320964023417, 57.38628258225211], [1.2492982167068531, 57.39031871441577], [1.244402423088896, 57.39358997912695], [1.2380965789973726, 57.39826671184213], [1.2335449999760757, 57.40200209620969], [1.2277279202142435, 57.40727438998379], [1.2273490927133959, 57.407653217484636], [1.2244319342072967, 57.4086969934881], [1.218992019804941, 57.4109502798117], [1.2118949554480685, 57.41430694126474], [1.2067020964023405, 57.41708258225211], [1.199968216706852, 57.42111871441577], [1.1950724230888947, 57.42438997912695], [1.1887665789973714, 57.42906671184213], [1.1842149999760745, 57.43280209620969], [1.1783979202142423, 57.43807438998379], [1.174234389983775, 57.44223792021426], [1.1689620962096798, 57.448054999976094], [1.1652267118421473, 57.452606578997354], [1.1605499791269627, 57.458912423088876], [1.1572787144157783, 57.46380821670684], [1.1532425822521137, 57.470542096402326], [1.1504669412647286, 57.47573495544809], [1.147110279811694, 57.48283201980496], [1.1448569934881108, 57.48827193420727], [1.142212129230437, 57.495663834616124], [1.1405028979497525, 57.50129841502544], [1.1385953023760709, 57.5089139634445], [1.1374465869698533, 57.51468894577139], [1.136294631268336, 57.52245480030632], [1.1357174944939135, 57.52831456831399], [1.135332272627689, 57.53615593954035], [1.135332272627689, 57.542044060459645], [1.1357174944939135, 57.54988543168601], [1.136294631268336, 57.555745199693675], [1.1374465869698533, 57.563511054228606], [1.1385953023760709, 57.569286036555496], [1.1405028979497525, 57.57690158497456], [1.142212129230437, 57.58253616538387], [1.1448569934881108, 57.589928065792726], [1.1471102798116934, 57.59536798019503], [1.150466941264728, 57.6024650445519], [1.1532425822521144, 57.60765790359767], [1.1540489039235846, 57.609003170033795], [1.1548065869698534, 57.61411105422861], [1.155955302376071, 57.6198860365555], [1.1578628979497525, 57.62750158497456], [1.159572129230437, 57.633136165383874], [1.1622169934881108, 57.64052806579273], [1.1644702798116935, 57.64596798019503], [1.167826941264728, 57.6530650445519], [1.1706025822521144, 57.65825790359767], [1.1746387144157793, 57.66499178329316], [1.1779099791269627, 57.66988757691112], [1.1794354462636567, 57.67194443124011], [1.1780153023760707, 57.6776139634445], [1.1768665869698531, 57.68338894577139], [1.1757146312683358, 57.69115480030632], [1.1751374944939132, 57.69701456831399], [1.1747522726276889, 57.70485593954035], [1.1747522726276889, 57.710744060459646], [1.1751374944939132, 57.71858543168601], [1.1757146312683358, 57.724445199693676], [1.1768665869698531, 57.73221105422861], [1.1780153023760707, 57.7379860365555], [1.1799228979497522, 57.74560158497456], [1.1816321292304368, 57.75123616538387], [1.1831807649577981, 57.75556431229464], [1.1813477792895775, 57.75830756920858], [1.1794920962096809, 57.760354999976094], [1.1757567118421484, 57.764906578997355], [1.1710799791269637, 57.771212423088876], [1.1678087144157794, 57.77610821670684], [1.1637725822521148, 57.78284209640233], [1.1609969412647296, 57.78803495544809], [1.157640279811695, 57.79513201980496], [1.1553869934881118, 57.80057193420727], [1.152742129230438, 57.807963834616125], [1.1510328979497535, 57.81359841502544], [1.149125302376072, 57.8212139634445], [1.1479765869698544, 57.82698894577139], [1.146824631268337, 57.83475480030632], [1.1462474944939145, 57.84061456831399], [1.1458622726276901, 57.84845593954035], [1.1458622726276901, 57.854344060459646], [1.1462474944939145, 57.86218543168601], [1.146824631268337, 57.868045199693675], [1.1479765869698544, 57.875811054228606], [1.149125302376072, 57.8815860365555], [1.1510328979497535, 57.88920158497456], [1.1519901203309522, 57.892357124273076]], [[4.003518200503562, 57.43932467356151], [4.000814568313987, 57.439457494493915], [3.99495480030632, 57.44003463126834], [3.987188945771395, 57.441186586969856], [3.985115916312582, 57.441598938167154], [3.984549720188307, 57.44023201980497], [3.9824793897521533, 57.43585467387629], [3.985313963444498, 57.43656469762393], [3.991088945771395, 57.437713413030146], [3.99885480030632, 57.43886536873166], [4.003518200503562, 57.43932467356151]], [[2.561098770502429, 57.7682428089074], [2.5633074177478847, 57.76455790359767], [2.5660830587352725, 57.7593650445519], [2.569439720188307, 57.75226798019503], [2.571693006511888, 57.74682806579273], [2.574337870769562, 57.73943616538387], [2.5760471020502473, 57.73380158497456], [2.577954697623929, 57.7261860365555], [2.579103413030146, 57.720411054228606], [2.5802553687316636, 57.712645199693675], [2.580832505506087, 57.70678543168601], [2.5811788800552473, 57.69973481576446], [2.5861719342072984, 57.701803006511895], [2.5935638346161487, 57.70444787076956], [2.5991984150254326, 57.70615710205024], [2.606813963444499, 57.708064697623925], [2.6125889457713964, 57.70921341303014], [2.620354800306322, 57.71036536873166], [2.626214568313988, 57.71094250550608], [2.6340559395403527, 57.71132772737231], [2.63550642644715, 57.71132772737231], [2.6384349554480693, 57.712893058735254], [2.6400394403895007, 57.713651923596004], [2.639757494493913, 57.71651456831399], [2.6396063939648147, 57.71959029024217], [2.6395899791269635, 57.719612423088876], [2.6363187144157814, 57.72450821670684], [2.6322825822521163, 57.731242096402326], [2.6295069412647285, 57.7364349554481], [2.6261502798116942, 57.74353201980497], [2.623896993488113, 57.74897193420727], [2.621252129230439, 57.756363834616124], [2.6195428979497537, 57.76199841502544], [2.6189079068116436, 57.764533441749485], [2.615545199693688, 57.76403463126834], [2.609685431686013, 57.76345749449391], [2.6018440604596482, 57.76307227262769], [2.5959559395403526, 57.76307227262769], [2.588114568313988, 57.76345749449391], [2.582254800306322, 57.76403463126834], [2.5744889457713964, 57.765186586969854], [2.568713963444499, 57.76633530237607], [2.561098770502429, 57.7682428089074]], [[2.455135288600628, 57.965101047810215], [2.4555750445519315, 57.96489305873526], [2.4607679035976595, 57.96211741774789], [2.467501783293148, 57.95808128558423], [2.469661102844036, 57.95663847438788], [2.470750279811694, 57.95926798019503], [2.4741069412647283, 57.9663650445519], [2.476882582252116, 57.97155790359767], [2.480918714415781, 57.97829178329316], [2.4841899791269633, 57.98318757691112], [2.4888667118421477, 57.98949342100264], [2.4926020962096818, 57.99404500002391], [2.497874389983777, 57.99986207978574], [2.5020379202142418, 58.00402561001621], [2.5052869898622934, 58.00697039509367], [2.5037379202142414, 58.00837438998379], [2.499574389983777, 58.01253792021426], [2.4943020962096814, 58.01835499997609], [2.4905667118421473, 58.02290657899736], [2.485889979126963, 58.02921242308888], [2.4826187144157807, 58.03410821670684], [2.4785825822521157, 58.04084209640233], [2.4769221792764644, 58.043948491880315], [2.475398848710031, 58.04387365544843], [2.4713415849745686, 58.042642897949754], [2.463726036555502, 58.04073530237607], [2.4579510542286047, 58.039586586969854], [2.4525180242689126, 58.03878067310546], [2.4526377273723097, 58.03634406045965], [2.4526377273723097, 58.03045593954035], [2.4522525055060855, 58.02261456831399], [2.4516753687316624, 58.01675480030632], [2.4505234130301448, 58.00898894577139], [2.4493746976239277, 58.0032139634445], [2.447467102050246, 57.99559841502544], [2.445757870769561, 57.98996383461613], [2.4450609048758127, 57.98801594543429], [2.447333058735272, 57.9837650445519], [2.4506897201883064, 57.97666798019503], [2.452943006511888, 57.97122806579273], [2.455135288600628, 57.965101047810215]], [[1.7799094665131057, 58.055813177312544], [1.7804321292304375, 58.05753616538387], [1.7830769934881112, 58.06492806579273], [1.785330279811694, 58.07036798019503], [1.7881015647711385, 58.07622736994392], [1.7843549999760742, 58.079302096209695], [1.778537920214242, 58.08457438998379], [1.7767770602194117, 58.086335249978625], [1.776412505506086, 58.07891456831399], [1.7758353687316635, 58.07305480030632], [1.774683413030146, 58.06528894577139], [1.7735346976239286, 58.0595139634445], [1.7718553746410122, 58.05280973029148], [1.7740119342072975, 58.053703006511896], [1.7799094665131057, 58.055813177312544]]]}}]}